PELICAN-7               
1 69017U 26100AP  26129.83337963 -.00057721  00000+0 -26838-2 0  9996
2 69017  97.4079  28.3464 0005506 140.8150 129.0610 15.20193631  2106
