{
  "norad_id": 69017,
  "name": "PELICAN-7",
  "history": [
    {
      "epoch": "2026-05-09T20:00:04.000032Z",
      "apogee_km": 509.0460441723026,
      "perigee_km": 501.46605174788965,
      "latitude_deg": -82.63190018281455,
      "longitude_deg": -48.735448565213886,
      "height_km": 536.0486369100909,
      "semi_major_axis_km": 6883.393047960096,
      "eccentricity": 0.0005506,
      "inclination_deg": 97.4079,
      "raan_deg": 28.3464,
      "arg_perigee_deg": 140.815,
      "mean_anomaly_deg": 129.061,
      "mean_motion_rev_day": 15.20193631
    }
  ]
}